{"fetched_at":"2026-03-30T13:17:50Z","count":15418,"tles":[{"name":"STARLINK-2098","line1":"1 47378U 21005AF  26087.81101068  .00004981  00000+0  18011-3 0  9990","line2":"2 47378  53.1582 285.3482 0000971  78.0318 282.0792 15.30213213286648","category":"Starlink"}]}